FOSSASAT-2E20 (TAT-O)   
1 63003U 25009DN  26068.70855016  .00016337  00000+0  61863-3 0  9998
2 63003  97.3231 146.2859 0002189 347.5575  12.5610 15.26991080121314
STARLINK-33531          
1 63399U 25065A   26067.46542635  .00036571  00000+0  13310-2 0  9995
2 63399  43.0009 113.9152 0001204 281.0419  79.0297 15.27601157 52659
